{
  "type": "FeatureCollection",
  "features": [
    {
      "type": "Feature",
      "properties": {
        "norad_id": 41890,
        "name": "CYGFM07",
        "group": "weather",
        "lat": -28.83670383741028,
        "lon": -77.29755384416359,
        "alt_km": 411.4471786446675,
        "timestamp": "2025-12-19T20:42:59.723780+00:00",
        "meta_object_name": "CYGFM07",
        "meta_object_id": "2016-078G",
        "meta_epoch": "2025-12-19T07:03:12.057984",
        "meta_mean_motion": 15.50266491,
        "meta_eccentricity": 0.0010123,
        "meta_inclination": 34.9484,
        "meta_ra_of_asc_node": 338.4723,
        "meta_arg_of_pericenter": 271.3651,
        "meta_mean_anomaly": 88.5912,
        "meta_ephemeris_type": 0,
        "meta_classification_type": "U",
        "meta_norad_cat_id": 41890,
        "meta_element_set_no": 999,
        "meta_rev_at_epoch": 50097,
        "meta_bstar": 0.00031053689,
        "meta_mean_motion_dot": 0.00018153,
        "meta_mean_motion_ddot": 0,
        "tle_line1": "1 41890U 16078G   25353.29388956  .00018153  00000+0  31054-3 0  9995",
        "tle_line2": "2 41890  34.9484 338.4723 0010123 271.3651  88.5912 15.50266491500971"
      },
      "geometry": {
        "type": "Point",
        "coordinates": [
          -77.29755384416359,
          -28.83670383741028
        ]
      }
    },
    {
      "type": "Feature",
      "properties": {
        "norad_id": 41891,
        "name": "CYGFM03",
        "group": "weather",
        "lat": 24.02797593546769,
        "lon": 116.98335802692279,
        "alt_km": 415.7302543949072,
        "timestamp": "2025-12-19T20:42:59.723793+00:00",
        "meta_object_name": "CYGFM03",
        "meta_object_id": "2016-078H",
        "meta_epoch": "2025-12-19T06:13:39.730368",
        "meta_mean_motion": 15.5016211,
        "meta_eccentricity": 0.0009683,
        "meta_inclination": 34.9439,
        "meta_ra_of_asc_node": 340.6207,
        "meta_arg_of_pericenter": 259.0452,
        "meta_mean_anomaly": 100.9181,
        "meta_ephemeris_type": 0,
        "meta_classification_type": "U",
        "meta_norad_cat_id": 41891,
        "meta_element_set_no": 999,
        "meta_rev_at_epoch": 50094,
        "meta_bstar": 0.00030160455,
        "meta_mean_motion_dot": 0.0001756,
        "meta_mean_motion_ddot": 0,
        "tle_line1": "1 41891U 16078H   25353.25948762  .00017560  00000+0  30160-3 0  9997",
        "tle_line2": "2 41891  34.9439 340.6207 0009683 259.0452 100.9181 15.50162110500942"
      },
      "geometry": {
        "type": "Point",
        "coordinates": [
          116.98335802692279,
          24.02797593546769
        ]
      }
    },
    {
      "type": "Feature",
      "properties": {
        "norad_id": 43010,
        "name": "FENGYUN 3D",
        "group": "weather",
        "lat": 33.67864159059462,
        "lon": -45.77498974115468,
        "alt_km": 824.76153071527,
        "timestamp": "2025-12-19T20:42:59.723804+00:00",
        "meta_object_name": "FENGYUN 3D",
        "meta_object_id": "2017-072A",
        "meta_epoch": "2025-12-19T07:01:28.293312",
        "meta_mean_motion": 14.19686266,
        "meta_eccentricity": 0.00012827,
        "meta_inclination": 98.9892,
        "meta_ra_of_asc_node": 319.701,
        "meta_arg_of_pericenter": 160.8695,
        "meta_mean_anomaly": 199.2529,
        "meta_ephemeris_type": 0,
        "meta_classification_type": "U",
        "meta_norad_cat_id": 43010,
        "meta_element_set_no": 999,
        "meta_rev_at_epoch": 41946,
        "meta_bstar": 5.6813807e-05,
        "meta_mean_motion_dot": 7.4e-07,
        "meta_mean_motion_ddot": 0,
        "tle_line1": "1 43010U 17072A   25353.29268858  .00000074  00000+0  56814-4 0  9999",
        "tle_line2": "2 43010  98.9892 319.7010 0001282 160.8695 199.2529 14.19686266419464"
      },
      "geometry": {
        "type": "Point",
        "coordinates": [
          -45.77498974115468,
          33.67864159059462
        ]
      }
    },
    {
      "type": "Feature",
      "properties": {
        "norad_id": 43013,
        "name": "NOAA 20 (JPSS-1)",
        "group": "weather",
        "lat": -2.504436612046611,
        "lon": 109.69572941865906,
        "alt_km": 830.6145799117721,
        "timestamp": "2025-12-19T20:42:59.723816+00:00",
        "meta_object_name": "NOAA 20 (JPSS-1)",
        "meta_object_id": "2017-073A",
        "meta_epoch": "2025-12-19T04:38:07.043712",
        "meta_mean_motion": 14.19527344,
        "meta_eccentricity": 0.00021279,
        "meta_inclination": 98.7607,
        "meta_ra_of_asc_node": 289.4195,
        "meta_arg_of_pericenter": 78.0381,
        "meta_mean_anomaly": 282.1033,
        "meta_ephemeris_type": 0,
        "meta_classification_type": "U",
        "meta_norad_cat_id": 43013,
        "meta_element_set_no": 999,
        "meta_rev_at_epoch": 41893,
        "meta_bstar": 4.0900838e-05,
        "meta_mean_motion_dot": 4.2e-07,
        "meta_mean_motion_ddot": 0,
        "tle_line1": "1 43013U 17073A   25353.19313708  .00000042  00000+0  40901-4 0  9992",
        "tle_line2": "2 43013  98.7607 289.4195 0002127  78.0381 282.1033 14.19527344418931"
      },
      "geometry": {
        "type": "Point",
        "coordinates": [
          109.69572941865906,
          -2.504436612046611
        ]
      }
    },
    {
      "type": "Feature",
      "properties": {
        "norad_id": 43226,
        "name": "GOES 17",
        "group": "weather",
        "lat": -0.3291730635702431,
        "lon": -50.04142767437272,
        "alt_km": 35775.022505089255,
        "timestamp": "2025-12-19T20:42:59.723828+00:00",
        "meta_object_name": "GOES 17",
        "meta_object_id": "2018-022A",
        "meta_epoch": "2025-12-19T06:09:01.440288",
        "meta_mean_motion": 1.00270996,
        "meta_eccentricity": 0.00030883,
        "meta_inclination": 0.4735,
        "meta_ra_of_asc_node": 89.1758,
        "meta_arg_of_pericenter": 191.1651,
        "meta_mean_anomaly": 170.5211,
        "meta_ephemeris_type": 0,
        "meta_classification_type": "U",
        "meta_norad_cat_id": 43226,
        "meta_element_set_no": 999,
        "meta_rev_at_epoch": 2862,
        "meta_bstar": 0,
        "meta_mean_motion_dot": -1.58e-06,
        "meta_mean_motion_ddot": 0,
        "tle_line1": "1 43226U 18022A   25353.25626667 -.00000158  00000+0  00000+0 0  9991",
        "tle_line2": "2 43226   0.4735  89.1758 0003088 191.1651 170.5211  1.00270996 28628"
      },
      "geometry": {
        "type": "Point",
        "coordinates": [
          -50.04142767437272,
          -0.3291730635702431
        ]
      }
    },
    {
      "type": "Feature",
      "properties": {
        "norad_id": 43491,
        "name": "FENGYUN 2H",
        "group": "weather",
        "lat": 1.587918743105524,
        "lon": 118.74989534519078,
        "alt_km": 35792.34021547912,
        "timestamp": "2025-12-19T20:42:59.723842+00:00",
        "meta_object_name": "FENGYUN 2H",
        "meta_object_id": "2018-050A",
        "meta_epoch": "2025-12-19T03:22:08.639328",
        "meta_mean_motion": 1.00271297,
        "meta_eccentricity": 0.00023908,
        "meta_inclination": 2.5668,
        "meta_ra_of_asc_node": 81.2619,
        "meta_arg_of_pericenter": 165.8734,
        "meta_mean_anomaly": 330.7471,
        "meta_ephemeris_type": 0,
        "meta_classification_type": "U",
        "meta_norad_cat_id": 43491,
        "meta_element_set_no": 999,
        "meta_rev_at_epoch": 2763,
        "meta_bstar": 0,
        "meta_mean_motion_dot": -1.07e-06,
        "meta_mean_motion_ddot": 0,
        "tle_line1": "1 43491U 18050A   25353.14037777 -.00000107  00000+0  00000+0 0  9996",
        "tle_line2": "2 43491   2.5668  81.2619 0002390 165.8734 330.7471  1.00271297 27637"
      },
      "geometry": {
        "type": "Point",
        "coordinates": [
          118.74989534519078,
          1.587918743105524
        ]
      }
    },
    {
      "type": "Feature",
      "properties": {
        "norad_id": 43689,
        "name": "METOP-C",
        "group": "weather",
        "lat": 13.263612264040894,
        "lon": 49.4568069053232,
        "alt_km": 820.7138636653044,
        "timestamp": "2025-12-19T20:42:59.723854+00:00",
        "meta_object_name": "METOP-C",
        "meta_object_id": "2018-087A",
        "meta_epoch": "2025-12-19T05:26:58.964640",
        "meta_mean_motion": 14.21486795,
        "meta_eccentricity": 9.318e-05,
        "meta_inclination": 98.6921,
        "meta_ra_of_asc_node": 50.8971,
        "meta_arg_of_pericenter": 27.9097,
        "meta_mean_anomaly": 332.213,
        "meta_ephemeris_type": 0,
        "meta_classification_type": "U",
        "meta_norad_cat_id": 43689,
        "meta_element_set_no": 999,
        "meta_rev_at_epoch": 36926,
        "meta_bstar": 6.9644834e-05,
        "meta_mean_motion_dot": 1.09e-06,
        "meta_mean_motion_ddot": 0,
        "tle_line1": "1 43689U 18087A   25353.22707135  .00000109  00000+0  69645-4 0  9992",
        "tle_line2": "2 43689  98.6921  50.8971 0000931  27.9097 332.2130 14.21486795369261"
      },
      "geometry": {
        "type": "Point",
        "coordinates": [
          49.4568069053232,
          13.263612264040894
        ]
      }
    }
  ]
}